ONEWEB-0369             
1 49295U 21090S   23299.94399388  .00000125  00000+0  27925-3 0  9994
2 49295  87.9182 136.8939 0001770  79.3878 280.7454 13.19725572 99237
ONEWEB-0370             
1 49296U 21090T   23299.93956629  .00000000  00000+0 -31994-4 0  9996
2 49296  87.9141 106.4069 0001668  92.6554 267.4771 13.20772825102587
ONEWEB-0371             
1 49297U 21090U   23299.57279614 -.00000293  00000+0 -76452-3 0  9991
2 49297  87.9182 136.9569 0001636  80.6645 279.4673 13.19725182 99221
ONEWEB-0372             
1 49298U 21090V   23299.85327555 -.00000248  00000+0 -64160-3 0  9994
2 49298  87.9150 106.4245 0001429  77.1796 282.9497 13.20772204102540
ONEWEB-0373             
1 49299U 21090W   23299.88064137  .00000135  00000+0  30079-3 0  9997
2 49299  87.9219 106.4013 0002059  88.1143 272.0226 13.20770372103734
ONEWEB-0374             
1 49300U 21090X   23299.93500747 -.00000050  00000+0 -17049-3 0  9998
2 49300  87.8941 121.6550 0001733  84.8541 275.2786 13.14505828100880
ONEWEB-0375             
1 49301U 21090Y   23299.94376681  .00000029  00000+0  39855-4 0  9992
2 49301  87.9139 106.4075 0002220 105.5130 254.6249 13.20769893103240
ONEWEB-0376             
1 49302U 21090Z   23299.64704308  .00000009  00000+0 -88470-5 0  9998
2 49302  87.9185 136.9596 0001682  71.7742 288.3574 13.19724511 99236
